STARLINK-37254          
1 68553U 26070M   26099.83335647 -.00918919  28593-3 -17193-2 0  9999
2 68553  53.1583 228.8032 0000696  50.7090 262.5607 16.00266449  2380
