{
  "norad_id": 68553,
  "name": "STARLINK-37254",
  "history": [
    {
      "epoch": "2026-04-09T20:00:01.999008Z",
      "apogee_km": 274.14320078137644,
      "perigee_km": 273.21726782236146,
      "latitude_deg": -35.86200821853037,
      "longitude_deg": 58.13554343294683,
      "height_km": 285.2062935470776,
      "semi_major_axis_km": 6651.817234301869,
      "eccentricity": 6.96e-05,
      "inclination_deg": 53.1583,
      "raan_deg": 228.8032,
      "arg_perigee_deg": 50.709,
      "mean_anomaly_deg": 262.5607,
      "mean_motion_rev_day": 16.00266449
    }
  ]
}